{
  "norad_id": 62410,
  "name": "STARLINK-11493 [DTC]",
  "history": [
    {
      "epoch": "2026-03-28T14:53:45.345408Z",
      "apogee_km": 356.86232263696,
      "perigee_km": 355.5720203777,
      "latitude_deg": -1.1821970057252716e-05,
      "longitude_deg": 4.457258298473251,
      "height_km": 355.641245849977,
      "semi_major_axis_km": 6734.35417150733,
      "eccentricity": 9.58e-05,
      "inclination_deg": 42.9998,
      "raan_deg": 53.9347,
      "arg_perigee_deg": 57.5433,
      "mean_anomaly_deg": 302.5527,
      "mean_motion_rev_day": 15.70937231
    },
    {
      "epoch": "2026-03-29T04:37:46.483104Z",
      "apogee_km": 356.8101510498582,
      "perigee_km": 355.92389032073515,
      "latitude_deg": -8.96541155501387e-06,
      "longitude_deg": 154.43949995721684,
      "height_km": 356.36796848613886,
      "semi_major_axis_km": 6734.504020685296,
      "eccentricity": 6.58e-05,
      "inclination_deg": 43.0,
      "raan_deg": 50.4857,
      "arg_perigee_deg": 238.8412,
      "mean_anomaly_deg": 121.2391,
      "mean_motion_rev_day": 15.70884799
    },
    {
      "epoch": "2026-03-30T03:31:09.944832Z",
      "apogee_km": 357.1931916934609,
      "perigee_km": 355.41664591528024,
      "latitude_deg": -4.8269035155184104e-05,
      "longitude_deg": 164.40154867174934,
      "height_km": 356.95100285064336,
      "semi_major_axis_km": 6734.44191880437,
      "eccentricity": 0.0001319,
      "inclination_deg": 43.0012,
      "raan_deg": 44.7356,
      "arg_perigee_deg": 170.1427,
      "mean_anomaly_deg": 189.9466,
      "mean_motion_rev_day": 15.70906528
    },
    {
      "epoch": "2026-03-30T05:02:43.608480Z",
      "apogee_km": 358.064757475996,
      "perigee_km": 354.7352023931171,
      "latitude_deg": -3.681561751792933e-05,
      "longitude_deg": 141.06382444187108,
      "height_km": 356.830833778776,
      "semi_major_axis_km": 6734.536979934556,
      "eccentricity": 0.0002472,
      "inclination_deg": 43.0034,
      "raan_deg": 44.3508,
      "arg_perigee_deg": 246.7394,
      "mean_anomaly_deg": 113.3213,
      "mean_motion_rev_day": 15.70873267
    },
    {
      "epoch": "2026-03-30T20:18:20.446272Z",
      "apogee_km": 356.84779100928245,
      "perigee_km": 355.4362861227992,
      "latitude_deg": -1.6658492849271863e-05,
      "longitude_deg": -92.29655962208975,
      "height_km": 356.4891756962253,
      "semi_major_axis_km": 6734.279038566041,
      "eccentricity": 0.0001048,
      "inclination_deg": 42.9997,
      "raan_deg": 40.5206,
      "arg_perigee_deg": 215.366,
      "mean_anomaly_deg": 144.7138,
      "mean_motion_rev_day": 15.70963521
    },
    {
      "epoch": "2026-03-31T13:05:31.048800Z",
      "apogee_km": 357.7277174897981,
      "perigee_km": 354.9692722311047,
      "latitude_deg": -7.58507217393641e-06,
      "longitude_deg": 11.002185836536102,
      "height_km": 355.3139715658045,
      "semi_major_axis_km": 6734.485494860452,
      "eccentricity": 0.0002048,
      "inclination_deg": 43.0005,
      "raan_deg": 36.3029,
      "arg_perigee_deg": 54.3446,
      "mean_anomaly_deg": 305.7612,
      "mean_motion_rev_day": 15.70891281
    },
    {
      "epoch": "2026-04-01T04:21:06.867936Z",
      "apogee_km": 357.58387864752694,
      "perigee_km": 355.4826615232596,
      "latitude_deg": 3.4035162541520474e-05,
      "longitude_deg": 137.64308080837066,
      "height_km": 356.5157560479228,
      "semi_major_axis_km": 6734.670270085393,
      "eccentricity": 0.000156,
      "inclination_deg": 43.0028,
      "raan_deg": 32.4697,
      "arg_perigee_deg": 258.4894,
      "mean_anomaly_deg": 101.5799,
      "mean_motion_rev_day": 15.70826632
    },
    {
      "epoch": "2026-04-02T12:23:51.455328Z",
      "apogee_km": 356.74462756744924,
      "perigee_km": 354.00516558744494,
      "latitude_deg": 2.415819157653906e-06,
      "longitude_deg": 7.59499676153412,
      "height_km": 353.9318177815783,
      "semi_major_axis_km": 6733.511896577446,
      "eccentricity": 0.00020342,
      "inclination_deg": 43.0004,
      "raan_deg": 24.4235,
      "arg_perigee_deg": 332.5314,
      "mean_anomaly_deg": 27.5446,
      "mean_motion_rev_day": 15.71231996
    },
    {
      "epoch": "2026-04-03T20:26:35.200320Z",
      "apogee_km": 359.9296313618843,
      "perigee_km": 353.30128799107024,
      "latitude_deg": 1.1195397274892683e-05,
      "longitude_deg": -122.45202569659777,
      "height_km": 354.74455905732475,
      "semi_major_axis_km": 6734.752459676477,
      "eccentricity": 0.0004921,
      "inclination_deg": 43.0012,
      "raan_deg": 16.3748,
      "arg_perigee_deg": 299.7702,
      "mean_anomaly_deg": 60.2676,
      "mean_motion_rev_day": 15.70797877
    },
    {
      "epoch": "2026-04-04T19:19:58.723392Z",
      "apogee_km": 357.2333095979693,
      "perigee_km": 355.0110040762129,
      "latitude_deg": -2.849604581089089e-05,
      "longitude_deg": -112.48873505282212,
      "height_km": 356.1434827339257,
      "semi_major_axis_km": 6734.259156837091,
      "eccentricity": 0.000165,
      "inclination_deg": 43.0005,
      "raan_deg": 10.6262,
      "arg_perigee_deg": 257.0665,
      "mean_anomaly_deg": 103.0018,
      "mean_motion_rev_day": 15.70970478
    },
    {
      "epoch": "2026-04-05T02:57:47.354400Z",
      "apogee_km": 357.87699157664974,
      "perigee_km": 355.05896346985537,
      "latitude_deg": 4.2904642429437204e-05,
      "longitude_deg": 130.8282513137425,
      "height_km": 356.3979531195992,
      "semi_major_axis_km": 6734.604977523252,
      "eccentricity": 0.00020922,
      "inclination_deg": 43.0005,
      "raan_deg": 8.7091,
      "arg_perigee_deg": 263.6039,
      "mean_anomaly_deg": 96.4591,
      "mean_motion_rev_day": 15.70849476
    },
    {
      "epoch": "2026-04-05T18:13:23.915712Z",
      "apogee_km": 357.48085866957626,
      "perigee_km": 355.1264982083949,
      "latitude_deg": 4.649366859510621e-05,
      "longitude_deg": -102.53229713154782,
      "height_km": 356.0895158014718,
      "semi_major_axis_km": 6734.440678438986,
      "eccentricity": 0.0001748,
      "inclination_deg": 43.0,
      "raan_deg": 4.8776,
      "arg_perigee_deg": 269.3613,
      "mean_anomaly_deg": 90.7055,
      "mean_motion_rev_day": 15.70906962
    },
    {
      "epoch": "2026-04-06T03:22:45.536448Z",
      "apogee_km": 357.2888641557365,
      "perigee_km": 355.4775476011637,
      "latitude_deg": 1.9050548683774087e-05,
      "longitude_deg": 117.45126262932962,
      "height_km": 356.2039363055239,
      "semi_major_axis_km": 6734.52020587845,
      "eccentricity": 0.00013448,
      "inclination_deg": 42.9995,
      "raan_deg": 2.5773,
      "arg_perigee_deg": 266.9365,
      "mean_anomaly_deg": 93.1349,
      "mean_motion_rev_day": 15.70879136
    },
    {
      "epoch": "2026-04-07T09:53:57.761376Z",
      "apogee_km": 356.67291704347826,
      "perigee_km": 355.91879525224795,
      "latitude_deg": 2.8978180782773845e-05,
      "longitude_deg": 10.732818246321077,
      "height_km": 355.70193583270583,
      "semi_major_axis_km": 6734.432856147863,
      "eccentricity": 5.599e-05,
      "inclination_deg": 42.9997,
      "raan_deg": 354.9132,
      "arg_perigee_deg": 345.6037,
      "mean_anomaly_deg": 14.4815,
      "mean_motion_rev_day": 15.70909699
    },
    {
      "epoch": "2026-04-07T20:00:00.999360Z",
      "apogee_km": 357.59543331424993,
      "perigee_km": 355.3635814037116,
      "latitude_deg": -27.904057306036012,
      "longitude_deg": 70.65119868057717,
      "height_km": 362.930311571016,
      "semi_major_axis_km": 6734.616507358981,
      "eccentricity": 0.0001657,
      "inclination_deg": 43.0,
      "raan_deg": 352.3784,
      "arg_perigee_deg": 270.8365,
      "mean_anomaly_deg": 312.1951,
      "mean_motion_rev_day": 15.70845442
    },
    {
      "epoch": "2026-04-08T01:09:33.028416Z",
      "apogee_km": 357.76545908213393,
      "perigee_km": 355.32359825346884,
      "latitude_deg": -1.1749971107689087e-05,
      "longitude_deg": 137.37632937413986,
      "height_km": 356.24565335888303,
      "semi_major_axis_km": 6734.681528667801,
      "eccentricity": 0.00018129,
      "inclination_deg": 42.9993,
      "raan_deg": 351.0804,
      "arg_perigee_deg": 273.3613,
      "mean_anomaly_deg": 86.7047,
      "mean_motion_rev_day": 15.70822693
    },
    {
      "epoch": "2026-04-09T09:12:18.220608Z",
      "apogee_km": 357.56973919834127,
      "perigee_km": 354.81364783723075,
      "latitude_deg": -1.0428512470407096e-05,
      "longitude_deg": 7.323248126249647,
      "height_km": 355.7826696007636,
      "semi_major_axis_km": 6734.328693517786,
      "eccentricity": 0.00020463,
      "inclination_deg": 42.9997,
      "raan_deg": 343.0317,
      "arg_perigee_deg": 277.5872,
      "mean_anomaly_deg": 82.4763,
      "mean_motion_rev_day": 15.70946146
    },
    {
      "epoch": "2026-04-10T00:27:53.815968Z",
      "apogee_km": 358.5043261030105,
      "perigee_km": 354.041567319523,
      "latitude_deg": 5.098832521546175e-05,
      "longitude_deg": 133.96749646012688,
      "height_km": 355.95645587182156,
      "semi_major_axis_km": 6734.4099467112665,
      "eccentricity": 0.00033134,
      "inclination_deg": 43.0019,
      "raan_deg": 339.2009,
      "arg_perigee_deg": 272.3244,
      "mean_anomaly_deg": 87.7245,
      "mean_motion_rev_day": 15.70917715
    },
    {
      "epoch": "2026-04-11T16:08:27.055104Z",
      "apogee_km": 357.71468392955285,
      "perigee_km": 354.7919585301397,
      "latitude_deg": 1.1017919847488407e-05,
      "longitude_deg": -112.76697724865586,
      "height_km": 356.53844662998443,
      "semi_major_axis_km": 6734.390321229846,
      "eccentricity": 0.000217,
      "inclination_deg": 43.0006,
      "raan_deg": 329.2344,
      "arg_perigee_deg": 249.4826,
      "mean_anomaly_deg": 110.5809,
      "mean_motion_rev_day": 15.70924582
    }
  ]
}